{"type":"FeatureCollection","features":[{"type":"Feature","id":0,"geometry":{"type":"Polygon","coordinates":[[[111.00206898810421,-7.7830282344757507],[111.00186700000012,-7.78306699999996],[111.00123200000019,-7.7833029999999326],[111.00105902000007,-7.7829548769998951],[111.00080945000019,-7.7828017059999297],[111.00062387300005,-7.7826549149999664],[111.00041909700013,-7.7824187729999608],[111.00028471300004,-7.7820358389998887],[111.00018232600019,-7.7817358749999244],[111.00002234600009,-7.7816465229998926],[110.99974078100013,-7.7816720529999657],[110.99924164300006,-7.7818379899999286],[110.99900487100018,-7.7820932779999339],[110.99881929400004,-7.7823230379999586],[110.99862091800014,-7.7825145039999484],[110.99835855000009,-7.7824825909999049],[110.99803219000012,-7.7825400299999501],[110.99766743500004,-7.7825144989999444],[110.99726428600013,-7.7823996169999532],[110.99685473599999,-7.7823613209998825],[110.99661796300006,-7.7826102259999743],[110.99659876200013,-7.7829931599998758],[110.99648357300015,-7.7833377969999447],[110.99627879600013,-7.783439911999892],[110.99599083300001,-7.7832867359999796],[110.99576686200004,-7.7830697389999273],[110.99551729500013,-7.782839974999888],[110.99537011400008,-7.7828144449999286],[110.99513973900014,-7.7829995259999691],[110.99513333400006,-7.7834399009999515],[110.99513973200004,-7.7835803089999445],[110.99481977100015,-7.783618598999908],[110.99458939700008,-7.7836696529998903],[110.99438462500018,-7.7834718009999619],[110.99415425400002,-7.7833696829999326],[110.9938470900002,-7.7834271179999632],[110.993706309,-7.783337764999942],[110.9935975250001,-7.7831016209999575],[110.99352713400003,-7.7830058889999236],[110.99343114700014,-7.7829995029999282],[110.99326476400017,-7.783088851999878],[110.99309198200007,-7.7833951959999013],[110.99308557800009,-7.7836887779999415],[110.99291279400018,-7.7839249179999683],[110.99276561200008,-7.7839185319999729],[110.9925224440002,-7.7837462079999113],[110.99226648000018,-7.7835164439999289],[110.99199131400013,-7.7834398519999581],[110.9917097500001,-7.783331349999969],[110.99124260500008,-7.7833823969999116],[110.99115941300016,-7.7834972759999346],[110.99131938700003,-7.7837844779999728],[110.99153055600004,-7.784116357999892],[110.99160094300009,-7.7843333549998306],[110.9915497460002,-7.7844737629998804],[110.99128097600016,-7.7845631099999082],[110.9908522290001,-7.7844546019999257],[110.99064745800013,-7.7842695129999697],[110.99042348800009,-7.7841227169998888],[110.99023150900013,-7.7840844189998393],[110.99009712499998,-7.7841865319999215],[110.99006512400013,-7.7843971439999677],[110.99010351200008,-7.7846843459998922],[110.98996272800014,-7.7847353989999419],[110.98978995000004,-7.7846205149999719],[110.98950198700015,-7.7845311579999361],[110.98938679700001,-7.7846268879999343],[110.9894123900001,-7.7848311199999785],[110.9892908010001,-7.7849332319999007],[110.98911162300016,-7.7849204629999349],[110.98876607000011,-7.7846396369999411],[110.98842691800007,-7.7843651909999494],[110.98812616100014,-7.7840716009999369],[110.98793418700006,-7.7840013919998796],[110.98765262200016,-7.7839567089999377],[110.98744144200009,-7.7841098739999666],[110.98729425100009,-7.7843843059999358],[110.98704305800015,-7.7846780119999153],[110.98721499999999,-7.7847829999998908],[110.9876939990001,-7.7851240009998719],[110.98788700000017,-7.7853799999999183],[110.98833500000012,-7.7865480009999146],[110.98856400000005,-7.7871140009999635],[110.98881545800009,-7.7874991399999089],[110.98903200000007,-7.787740999999869],[110.98943314000002,-7.7880305409999551],[110.98982200000006,-7.7882759999998825],[110.98892391100009,-7.7885774169998854],[110.98871491000011,-7.789694961999885],[110.98853730700006,-7.7904943299999445],[110.98852289300015,-7.7910974499999384],[110.98868127200018,-7.7912984929999425],[110.98866455633828,-7.7913651680364069],[110.98878353000009,-7.7913976099998195],[110.98910357300002,-7.7913638509999714],[110.98923978100009,-7.7912419829999067],[110.98941310300006,-7.7912439159998712],[110.98987910200015,-7.7914287689998218],[110.99013437300005,-7.7914858649999132],[110.9904127640001,-7.7914663269999096],[110.99058572300009,-7.7915007579999269],[110.99086953500012,-7.7914089259999741],[110.99113573600005,-7.7912257119999708],[110.9912693660001,-7.7911236899998926],[110.99144388300004,-7.7910053419999485],[110.99157116900011,-7.7908882029999518],[110.99177129600002,-7.7906953529998759],[110.99190810100009,-7.7905629729999646],[110.99198934400016,-7.7904190389999144],[110.99211431999998,-7.790382541999918],[110.99225373900009,-7.7903344719998699],[110.99242878699999,-7.7903931689999126],[110.99257793900011,-7.7904320069999358],[110.99274896300005,-7.7904204689999688],[110.9929193600002,-7.7903738329999328],[110.99306175500016,-7.7903511529999037],[110.99314680300006,-7.7903144949999046],[110.99326231200013,-7.7902350679999017],[110.99346163000013,-7.7901323599999159],[110.99356016100018,-7.790114029999927],[110.99386127700006,-7.7901589909999416],[110.99408105500009,-7.7900366349999217],[110.9941828960001,-7.7899198969999475],[110.99445666700012,-7.789929883999946],[110.99462691900015,-7.7900013849999254],[110.99485091300005,-7.7900174859999538],[110.9951288850001,-7.7899616489999062],[110.99525749100013,-7.7899318809999727],[110.99525499200018,-7.789845181999965],[110.99523797799998,-7.7897609549998492],[110.99545170200008,-7.789615094999931],[110.99572274200017,-7.7895591809999587],[110.99605956900001,-7.7893591159999005],[110.99646734400011,-7.7892543849999356],[110.9971169210001,-7.7891147779999415],[110.99717787500003,-7.7891016779998949],[110.99742331900006,-7.7890858519998574],[110.99751683500017,-7.7890288289998466],[110.99762795500015,-7.7890777329998855],[110.99775462100013,-7.7891097279999713],[110.99798713500019,-7.7891152759999613],[110.99819134600011,-7.7890085049999129],[110.99856561900009,-7.7888661499998761],[110.998910395,-7.7887938849999614],[110.99935176400004,-7.788676692999843],[110.99989458100009,-7.7885665879999806],[111.00035834300007,-7.7883176519998756],[111.00073127600012,-7.7881269159998965],[111.00090632000007,-7.7882735099999536],[111.00118872100006,-7.7881189859999722],[111.00146092000011,-7.7879590789999611],[111.00148394209191,-7.7879507955970553],[111.00144543400006,-7.7876892629999475],[111.00145073500005,-7.7873971649998452],[111.00149181600017,-7.7869795109999131],[111.00146580400013,-7.7862777019999498],[111.00150965700016,-7.7856312619999244],[111.00158133000014,-7.7851890119999325],[111.00166455300018,-7.7847298509999519],[111.00174567300013,-7.7843986309998741],[111.00172904500016,-7.7841357549999088],[111.00175868500014,-7.7838653929999282],[111.00177185600006,-7.7836791609999523],[111.00182296500014,-7.7834733829998868],[111.00189107900007,-7.7833343579999337],[111.00195004700015,-7.7832196379999345],[111.00206898810421,-7.7830282344757507]]]},"properties":{"FID":0,"OBJECTID_1":17917,"NAMOBJ":"Mlokomanis Kulon","FCODE":"BA03070040","REMARK":"Wilayah Administrasi Kelurahan/Desa","BATASRW":6,"Lingkungan":"Jaten","LUAS":5.3586138700000001,"METADATA":"TASWIL1000020221227_DATA_BATAS_DESAKELURAHAN","SRS_ID":"SRGI 2013","KDBBPS":"3312","KDCBPS":"3312150","KDCPUM":"33.12.13","KDEBPS":"3312150009","KDEPUM":"33.12.13.1009","KDPBPS":"33","KDPKAB":"33.12","KDPPUM":"33","LUASWH":0,"TIPADM":2,"WADMKC":"Ngadirojo","WADMKD":"Mlokomanis Kulon","WADMKK":"Wonogiri","WADMPR":"Jawa Tengah","WIADKC":" ","WIADKK":" ","WIADPR":" ","WIADKD":" ","UUPP":"Hasil Delineasi Batas Desa 2017","SIGCODE":16318}},{"type":"Feature","id":1,"geometry":{"type":"Polygon","coordinates":[[[111.01205589220365,-7.7907505393400811],[111.01207599999998,-7.7906189999998787],[111.01207774700003,-7.790608734999978],[111.01208400000013,-7.7905719999998837],[111.01215900000011,-7.7902769999998895],[111.01220699900006,-7.790070999999898],[111.01222599900007,-7.790002999999956],[111.01234100000005,-7.7895090009999421],[111.0123745100002,-7.7893646519999038],[111.01239300000009,-7.789284999999893],[111.0124550000001,-7.7889949999998862],[111.01245999900004,-7.7889739999999392],[111.0125359500002,-7.7886341369999741],[111.01259900000008,-7.7883519999999749],[111.01270500000015,-7.7878809999999703],[111.01272300000005,-7.787796999999955],[111.01276000000007,-7.787589999999966],[111.01276500000017,-7.7875610009999718],[111.01286800000014,-7.7869459999998867],[111.01292361600014,-7.7866123039999025],[111.01299900000015,-7.7861599999998816],[111.01299520200018,-7.7860311469999601],[111.01298500000007,-7.785684999999944],[111.01296900000017,-7.7850979999999481],[111.01296600000006,-7.7850789999998824],[111.012787,-7.7837669999999548],[111.01278009600014,-7.7836924439998256],[111.0127579280001,-7.7834530239999253],[111.01271200000002,-7.7829569999998967],[111.01270600000009,-7.7828639999998472],[111.012699,-7.7827599999999393],[111.01269129600007,-7.7826728859999434],[111.0126860000002,-7.7826129999999694],[111.0126830000001,-7.7825739989999079],[111.01262800000018,-7.7824330009999585],[111.01259792500008,-7.7822630369999501],[111.01258500000017,-7.7821899999999573],[111.01257900000002,-7.7820519999999647],[111.01260903100012,-7.7816890809999677],[111.01234720800005,-7.7816399619999288],[111.01202084800002,-7.781608060999929],[111.01189090600013,-7.7817245279998701],[111.01188781200005,-7.7817199899999423],[111.01174600000002,-7.7815119999999638],[111.01171999900009,-7.7813629999998852],[111.01170900000017,-7.7812410009999553],[111.01161800000011,-7.7811569999998937],[111.01143500000006,-7.7811650009999767],[111.01098200000007,-7.7813689999998701],[111.01076600000016,-7.7814469999998437],[111.01066100000014,-7.7814319999999384],[111.01064900000006,-7.7811820009999337],[111.0106560000001,-7.7810470009998767],[111.01056300000005,-7.7809339999999452],[111.01036600000009,-7.7808399999999551],[111.01022600000005,-7.7808239999998818],[111.00997900000004,-7.7809459999999717],[111.00988000000018,-7.7810609999999656],[111.0098660000001,-7.7810769999998683],[111.00976999900007,-7.7812200009999515],[111.00974912300012,-7.7812284739998745],[111.00956800000012,-7.781302000999915],[111.00927800000011,-7.7814519999998879],[111.00915300000008,-7.7814689999999587],[111.00897700000007,-7.7813970009999593],[111.00879000000009,-7.7811219999999253],[111.00862100000012,-7.7809039999999641],[111.00846000000013,-7.7807689989999744],[111.00836599900009,-7.7807819999998742],[111.00823400000007,-7.7808809999999085],[111.00820099999999,-7.781016999999963],[111.00819400000012,-7.7812159999999153],[111.00808200000012,-7.78139299999998],[111.00794600000006,-7.7814829999999802],[111.00777032736909,-7.7814667779776983],[111.0076578070001,-7.7821171779999645],[111.00796959300015,-7.7821379889999776],[111.00781377500005,-7.782638947999942],[111.00774225500015,-7.7828346059998808],[111.00794382000004,-7.7828946349998773],[111.0078823730002,-7.7832233019998966],[111.00732402800008,-7.7830321759998924],[111.00694720799999,-7.7831435349999651],[111.00668522799998,-7.7833197349999637],[111.006607223,-7.7835788799999364],[111.00668610900016,-7.7837588819999723],[111.00697863000011,-7.7839528219999465],[111.00716760900002,-7.7841051599999673],[111.00722793800014,-7.7843947389999357],[111.00733680700017,-7.7844768469999508],[111.00730321600014,-7.7848982749999323],[111.00719192999998,-7.784862723999936],[111.00687999300004,-7.7865249099999687],[111.00695125400017,-7.7865318669998373],[111.00673906500009,-7.7873208709999062],[111.00673954800004,-7.7874293349998425],[111.00707204100013,-7.78732353099997],[111.00718975600017,-7.7872712199999796],[111.00724439700019,-7.787261226999874],[111.00728809800012,-7.7872814049999306],[111.00738473900003,-7.7873082329999193],[111.00755101500016,-7.7873388669999031],[111.00764059300008,-7.7873596359998487],[111.00777875400007,-7.7874279109998952],[111.00792145600013,-7.7875020189998168],[111.00802776400008,-7.7875537449999115],[111.00810440999999,-7.7875981669999419],[111.00815287800009,-7.7876341209998827],[111.00822853500006,-7.78768042899992],[111.00827234700012,-7.7877027469999689],[111.00833726700017,-7.7877177279999614],[111.00838637700014,-7.7877290619999258],[111.00841988700006,-7.7877334659999633],[111.00847050200008,-7.7877401179998742],[111.00852139900013,-7.7877542769999764],[111.0085562540001,-7.7877581339999438],[111.0085885110002,-7.787758882999924],[111.00888524300007,-7.7877222649998998],[111.0091476290001,-7.7877353469999093],[111.00937620900015,-7.7877097899999512],[111.00951125100016,-7.7877207459998772],[111.00955874099998,-7.787794556999927],[111.00955555100006,-7.787922511999966],[111.00951636900004,-7.7880404109999404],[111.00948712700011,-7.7881158199999732],[111.00949362,-7.7881703269999321],[111.00953563500002,-7.7882228629999304],[111.00956892900012,-7.7882648579999341],[111.00958155199999,-7.7882674859998247],[111.00953413399998,-7.7883921629999122],[111.00942549500013,-7.7885402819999285],[111.00936956800007,-7.7886601259999679],[111.00930404200017,-7.7888285259999748],[111.00924017700009,-7.7890431839999792],[111.00918165600012,-7.7891995469999529],[111.0091830560001,-7.7893744709999169],[111.00922197400013,-7.7895225259999279],[111.00934746600018,-7.7899957559998256],[111.00939737100015,-7.7904136369999151],[111.00926318300003,-7.7907831349999697],[111.00925872400012,-7.7910577359999138],[111.00925512100008,-7.7913397149999355],[111.00937781500011,-7.7915510719998906],[111.00957224800015,-7.791730743999949],[111.00980289100011,-7.7918469189999655],[111.01010392800009,-7.7918053089998693],[111.01060083200014,-7.7916025789999708],[111.01120983700019,-7.7913090939999279],[111.01170170500001,-7.7909743639999647],[111.01199591300019,-7.7907890479999082],[111.01205589220365,-7.7907505393400811]]]},"properties":{"FID":1,"OBJECTID_1":17917,"NAMOBJ":"Mlokomanis Kulon","FCODE":"BA03070040","REMARK":"Wilayah Administrasi Kelurahan/Desa","BATASRW":8,"Lingkungan":"Ngasinan","LUAS":5.3586138700000001,"METADATA":"TASWIL1000020221227_DATA_BATAS_DESAKELURAHAN","SRS_ID":"SRGI 2013","KDBBPS":"3312","KDCBPS":"3312150","KDCPUM":"33.12.13","KDEBPS":"3312150009","KDEPUM":"33.12.13.1009","KDPBPS":"33","KDPKAB":"33.12","KDPPUM":"33","LUASWH":0,"TIPADM":2,"WADMKC":"Ngadirojo","WADMKD":"Mlokomanis Kulon","WADMKK":"Wonogiri","WADMPR":"Jawa Tengah","WIADKC":" ","WIADKK":" ","WIADPR":" ","WIADKD":" ","UUPP":"Hasil Delineasi Batas Desa 2017","SIGCODE":16318}},{"type":"Feature","id":2,"geometry":{"type":"Polygon","coordinates":[[[111.00925759274963,-7.7911462702394374],[111.00897450800005,-7.7906515389998958],[111.00870701600013,-7.7905115679999426],[111.00853898700018,-7.7904765379998935],[111.00812850300014,-7.7906855929999779],[111.00773375500017,-7.7906430549999754],[111.0076469710001,-7.7906094129999701],[111.00749005500006,-7.7906101059999173],[111.0073854380002,-7.7906400029999077],[111.00712110400019,-7.7908655909999425],[111.00696368000013,-7.7910546509999676],[111.00698703600011,-7.7911927159998982],[111.00706780200005,-7.7913573419999693],[111.00709248300001,-7.7914561309999613],[111.00714897400019,-7.7916043059999538],[111.00716266900014,-7.7917468379999377],[111.00715474800012,-7.7919042909999803],[111.00715720900007,-7.7919892369999388],[111.00712068300004,-7.7920970179999358],[111.00704061900018,-7.7921138749999272],[111.00696050500011,-7.7921351699999377],[111.00678718800009,-7.7921576439999285],[111.0066341120002,-7.7921637469999609],[111.00649941600005,-7.7921452039999508],[111.00640039000007,-7.792111438999882],[111.00630370300013,-7.7920908139999483],[111.0062112330001,-7.7921377299999222],[111.00614602000013,-7.7922247609999431],[111.00613296400013,-7.7922546059999149],[111.00612178699998,-7.7923017169999298],[111.00612804800011,-7.7924166179999474],[111.00615126400004,-7.7924628929999358],[111.00623915500012,-7.7926394069999674],[111.00625491300019,-7.7927285519999714],[111.00628051500019,-7.7927960899999675],[111.00626809400012,-7.7928504809999595],[111.00622076000013,-7.7929387329999713],[111.00609128400004,-7.7929614289998881],[111.00598915000012,-7.7929517699998883],[111.00588007500011,-7.7929278329999647],[111.00579658800018,-7.7929013419998796],[111.0057301560002,-7.7928736199999094],[111.00568913900008,-7.7928589629999578],[111.00556947300015,-7.7928366729999539],[111.0054833370001,-7.7928294359999768],[111.005412396,-7.7928721929998801],[111.00536823200008,-7.7929243809999207],[111.00537166800001,-7.7929713869999091],[111.00539860600014,-7.7930404459999636],[111.00543637900012,-7.7931131689999233],[111.00544819100003,-7.7931999229999747],[111.00542902100005,-7.7932636099999399],[111.00539304900013,-7.7933058099999357],[111.005358688,-7.7933309869999334],[111.00532718200009,-7.7933547759999442],[111.00529995100004,-7.7933771929999125],[111.00526844500013,-7.7934009819999233],[111.00521851300005,-7.7934217259999627],[111.00513403000008,-7.7934359319999658],[111.00496988300011,-7.7934410839999373],[111.00488142100005,-7.7934079669999505],[111.00477157400013,-7.793384332999949],[111.00473852400006,-7.7934234729999048],[111.00478832400006,-7.7935418909999612],[111.0048371000002,-7.7936247959999605],[111.00488164900008,-7.7937048149999555],[111.00490314900009,-7.7937523079999664],[111.00497313200009,-7.7938696499999764],[111.00505860900017,-7.7940147469998919],[111.00511258100016,-7.7941230859998996],[111.00517894900014,-7.7942119059998731],[111.00522014400008,-7.7944214449998981],[111.00520069900017,-7.7945495629999186],[111.00521725900012,-7.7946562499999459],[111.00532921600006,-7.7947640009999759],[111.00543276900004,-7.7948295009999811],[111.00572890400008,-7.795134558999905],[111.00605846600018,-7.7954266779999557],[111.00613437900017,-7.7956069819999243],[111.00623080700012,-7.7957416309998848],[111.00639926100007,-7.7961599299999307],[111.00647020100007,-7.7963453359999448],[111.00663211700015,-7.7967484549999426],[111.00685556800005,-7.7971864839999512],[111.00727971200018,-7.7980617279999365],[111.00748453600005,-7.7986527469999487],[111.00776369100015,-7.799100052999961],[111.00798540300019,-7.7995130029999018],[111.00828428458351,-7.8000364605399],[111.008772196,-7.7995603319999418],[111.00947772600011,-7.7989859189999038],[111.01002487099998,-7.7986029719999124],[111.01036563600007,-7.7983444839999265],[111.01114315500018,-7.797774851999975],[111.01169029300013,-7.7972674509999251],[111.01233821900013,-7.7966595269999743],[111.01288055700002,-7.7962526439998783],[111.01310871800018,-7.7960023309999542],[111.01301492700014,-7.795649520999973],[111.0127513930002,-7.7951641229999495],[111.01304200000015,-7.7948319999999285],[111.01337900000016,-7.7942059999999174],[111.0134697160002,-7.7940364009999143],[111.01349399900016,-7.7939909999998918],[111.01351000000017,-7.7939599999999132],[111.01380400000016,-7.793679999999938],[111.01373100000012,-7.7935260009999752],[111.01357100000007,-7.7931879999998728],[111.01345816100002,-7.792955653999968],[111.01335100000017,-7.7927349999998796],[111.01327700000007,-7.7925839999999198],[111.01313910800019,-7.7922222669999428],[111.01305400000007,-7.7919989999999189],[111.01287099900014,-7.7918549999998277],[111.01264600000007,-7.7918399999999792],[111.01187300000009,-7.791802999999959],[111.01198200000005,-7.7912090009999133],[111.01202899999998,-7.7909309999999437],[111.01205200000015,-7.7907760009998128],[111.01205589220365,-7.7907505393400811],[111.01199591300019,-7.7907890479999082],[111.01170170500001,-7.7909743639999647],[111.01120983700019,-7.7913090939999279],[111.01060083200014,-7.7916025789999708],[111.01010392800009,-7.7918053089998693],[111.00980289100011,-7.7918469189999655],[111.00957224800015,-7.791730743999949],[111.00937781500011,-7.7915510719998906],[111.00925512100008,-7.7913397149999355],[111.00925759274963,-7.7911462702394374]]]},"properties":{"FID":2,"OBJECTID_1":17917,"NAMOBJ":"Mlokomanis Kulon","FCODE":"BA03070040","REMARK":"Wilayah Administrasi Kelurahan/Desa","BATASRW":1,"Lingkungan":"Bulurejo","LUAS":5.3586138700000001,"METADATA":"TASWIL1000020221227_DATA_BATAS_DESAKELURAHAN","SRS_ID":"SRGI 2013","KDBBPS":"3312","KDCBPS":"3312150","KDCPUM":"33.12.13","KDEBPS":"3312150009","KDEPUM":"33.12.13.1009","KDPBPS":"33","KDPKAB":"33.12","KDPPUM":"33","LUASWH":0,"TIPADM":2,"WADMKC":"Ngadirojo","WADMKD":"Mlokomanis Kulon","WADMKK":"Wonogiri","WADMPR":"Jawa Tengah","WIADKC":" ","WIADKK":" ","WIADPR":" ","WIADKD":" ","UUPP":"Hasil Delineasi Batas Desa 2017","SIGCODE":16318}},{"type":"Feature","id":3,"geometry":{"type":"Polygon","coordinates":[[[111.00617916973749,-7.7921805205141936],[111.0062112330001,-7.7921377299999222],[111.00630370300013,-7.7920908139999483],[111.00640039000007,-7.792111438999882],[111.00649941600005,-7.7921452039999508],[111.0066341120002,-7.7921637469999609],[111.00678718800009,-7.7921576439999285],[111.00696050500011,-7.7921351699999377],[111.00704061900018,-7.7921138749999272],[111.00712068300004,-7.7920970179999358],[111.00715720900007,-7.7919892369999388],[111.00715474800012,-7.7919042909999803],[111.00716266900014,-7.7917468379999377],[111.00714897400019,-7.7916043059999538],[111.00709248300001,-7.7914561309999613],[111.00706780200005,-7.7913573419999693],[111.00698703600011,-7.7911927159998982],[111.00696368000013,-7.7910546509999676],[111.00712110400019,-7.7908655909999425],[111.0073854380002,-7.7906400029999077],[111.00749005500006,-7.7906101059999173],[111.0076469710001,-7.7906094129999701],[111.00773375500017,-7.7906430549999754],[111.00812850300014,-7.7906855929999779],[111.00853898700018,-7.7904765379998935],[111.00870701600013,-7.7905115679999426],[111.00897450800005,-7.7906515389998958],[111.00925759274963,-7.7911462702394374],[111.00925872400012,-7.7910577359999138],[111.00926318300003,-7.7907831349999697],[111.00939737100015,-7.7904136369999151],[111.00934746600018,-7.7899957559998256],[111.00922197400013,-7.7895225259999279],[111.0091830560001,-7.7893744709999169],[111.00918165600012,-7.7891995469999529],[111.00924017700009,-7.7890431839999792],[111.00930404200017,-7.7888285259999748],[111.00936956800007,-7.7886601259999679],[111.00942549500013,-7.7885402819999285],[111.00953413399998,-7.7883921629999122],[111.00958155199999,-7.7882674859998247],[111.00956892900012,-7.7882648579999341],[111.00953563500002,-7.7882228629999304],[111.00949362,-7.7881703269999321],[111.00948712700011,-7.7881158199999732],[111.00951636900004,-7.7880404109999404],[111.00955555100006,-7.787922511999966],[111.00955874099998,-7.787794556999927],[111.00951125100016,-7.7877207459998772],[111.00937620900015,-7.7877097899999512],[111.0091476290001,-7.7877353469999093],[111.00888524300007,-7.7877222649998998],[111.0085885110002,-7.787758882999924],[111.0085562540001,-7.7877581339999438],[111.00852139900013,-7.7877542769999764],[111.00847050200008,-7.7877401179998742],[111.00841988700006,-7.7877334659999633],[111.00838637700014,-7.7877290619999258],[111.00833726700017,-7.7877177279999614],[111.00827234700012,-7.7877027469999689],[111.00822853500006,-7.78768042899992],[111.00815287800009,-7.7876341209998827],[111.00810440999999,-7.7875981669999419],[111.00802776400008,-7.7875537449999115],[111.00792145600013,-7.7875020189998168],[111.00777875400007,-7.7874279109998952],[111.00764059300008,-7.7873596359998487],[111.00755101500016,-7.7873388669999031],[111.00738473900003,-7.7873082329999193],[111.00728809800012,-7.7872814049999306],[111.00724439700019,-7.787261226999874],[111.00718975600017,-7.7872712199999796],[111.00707204100013,-7.78732353099997],[111.00673954800004,-7.7874293349998425],[111.00676027800017,-7.7874719559998766],[111.00653009100006,-7.7875526939999418],[111.0064081970001,-7.7875915719999398],[111.00624068000019,-7.787714666999932],[111.0061185520002,-7.7878425269998957],[111.00627758600001,-7.7879706839999585],[111.00604771500008,-7.78828942399997],[111.00592579600004,-7.7884672149999119],[111.00580801900014,-7.7886320649999448],[111.00565259600017,-7.7888557869999318],[111.0053767440001,-7.78905689599992],[111.00504847600013,-7.7892629079999551],[111.00475736100009,-7.7895628669999724],[111.00462720800004,-7.7897312919999422],[111.00441043300015,-7.7898952839999538],[111.00412434500009,-7.7899233509999704],[111.00400010500016,-7.7899858659998813],[111.00389370600016,-7.7901039619998755],[111.00379134500008,-7.7902419839999197],[111.00349952000005,-7.7905347839999308],[111.00315862900015,-7.7908391499999539],[111.00295569500008,-7.7910662209999373],[111.00322810600011,-7.7911410649999766],[111.00376889900019,-7.7913070829998787],[111.00417746600016,-7.7913950479999698],[111.00449683000011,-7.7915245359999403],[111.00493428800007,-7.7916836009999315],[111.00529791400015,-7.7918328919999453],[111.00558595000018,-7.7919262369999274],[111.00579862500007,-7.7920140089998995],[111.00602977700004,-7.7921101459999704],[111.00617916973749,-7.7921805205141936]]]},"properties":{"FID":3,"OBJECTID_1":17917,"NAMOBJ":"Mlokomanis Kulon","FCODE":"BA03070040","REMARK":"Wilayah Administrasi Kelurahan/Desa","BATASRW":9,"Lingkungan":"Soko Lor","LUAS":5.3586138700000001,"METADATA":"TASWIL1000020221227_DATA_BATAS_DESAKELURAHAN","SRS_ID":"SRGI 2013","KDBBPS":"3312","KDCBPS":"3312150","KDCPUM":"33.12.13","KDEBPS":"3312150009","KDEPUM":"33.12.13.1009","KDPBPS":"33","KDPKAB":"33.12","KDPPUM":"33","LUASWH":0,"TIPADM":2,"WADMKC":"Ngadirojo","WADMKD":"Mlokomanis Kulon","WADMKK":"Wonogiri","WADMPR":"Jawa Tengah","WIADKC":" ","WIADKK":" ","WIADPR":" ","WIADKD":" ","UUPP":"Hasil Delineasi Batas Desa 2017","SIGCODE":16318}},{"type":"Feature","id":4,"geometry":{"type":"Polygon","coordinates":[[[111.00294516696653,-7.799672878269746],[111.00317585800008,-7.7996561439999255],[111.00340144100016,-7.7997662349998791],[111.00378061100008,-7.8000151399999709],[111.00409259000008,-7.8004267889999142],[111.00436137000008,-7.800613465999902],[111.00462055000003,-7.8005608109999116],[111.00482213300012,-7.8005608079999433],[111.00499972000017,-7.8006756849999306],[111.00534057100003,-7.8007829859999447],[111.00536449500004,-7.8009724549999646],[111.00576286400008,-7.8010011689999601],[111.00621402899998,-7.8009915889998638],[111.00664598900005,-7.8007713969999486],[111.00701075800009,-7.8005512039999303],[111.00715954500009,-7.8004889749999506],[111.0073755300001,-7.8006421439998803],[111.00746192500003,-7.8007139429998915],[111.00770099600004,-7.8004911059999245],[111.008161379,-7.800156397999956],[111.00828428458351,-7.8000364605399],[111.00798540300019,-7.7995130029999018],[111.00776369100015,-7.799100052999961],[111.00748453600005,-7.7986527469999487],[111.00727971200018,-7.7980617279999365],[111.00685556800005,-7.7971864839999512],[111.00663211700015,-7.7967484549999426],[111.00647020100007,-7.7963453359999448],[111.00639926100007,-7.7961599299999307],[111.00623080700012,-7.7957416309998848],[111.00613437900017,-7.7956069819999243],[111.00605846600018,-7.7954266779999557],[111.00572890400008,-7.795134558999905],[111.00543276900004,-7.7948295009999811],[111.00532921600006,-7.7947640009999759],[111.00521725900012,-7.7946562499999459],[111.00520069900017,-7.7945495629999186],[111.00522014400008,-7.7944214449998981],[111.00517894900014,-7.7942119059998731],[111.00511258100016,-7.7941230859998996],[111.00505860900017,-7.7940147469998919],[111.00497313200009,-7.7938696499999764],[111.00490314900009,-7.7937523079999664],[111.00488164900008,-7.7937048149999555],[111.0048371000002,-7.7936247959999605],[111.00478832400006,-7.7935418909999612],[111.00473852400006,-7.7934234729999048],[111.00477157400013,-7.793384332999949],[111.00488142100005,-7.7934079669999505],[111.00496988300011,-7.7934410839999373],[111.00513403000008,-7.7934359319999658],[111.00521851300005,-7.7934217259999627],[111.00526844500013,-7.7934009819999233],[111.00529995100004,-7.7933771929999125],[111.00532718200009,-7.7933547759999442],[111.005358688,-7.7933309869999334],[111.00539304900013,-7.7933058099999357],[111.00542902100005,-7.7932636099999399],[111.00544819100003,-7.7931999229999747],[111.00543637900012,-7.7931131689999233],[111.00539860600014,-7.7930404459999636],[111.00537166800001,-7.7929713869999091],[111.00536823200008,-7.7929243809999207],[111.005412396,-7.7928721929998801],[111.0054833370001,-7.7928294359999768],[111.00556947300015,-7.7928366729999539],[111.00568913900008,-7.7928589629999578],[111.0057301560002,-7.7928736199999094],[111.00579658800018,-7.7929013419998796],[111.00588007500011,-7.7929278329999647],[111.00598915000012,-7.7929517699998883],[111.00609128400004,-7.7929614289998881],[111.00622076000013,-7.7929387329999713],[111.00626809400012,-7.7928504809999595],[111.00628051500019,-7.7927960899999675],[111.00625491300019,-7.7927285519999714],[111.00623915500012,-7.7926394069999674],[111.00615126400004,-7.7924628929999358],[111.00612804800011,-7.7924166179999474],[111.00612178699998,-7.7923017169999298],[111.00613296400013,-7.7922546059999149],[111.00614602000013,-7.7922247609999431],[111.00617916973749,-7.7921805205141936],[111.00602977700004,-7.7921101459999704],[111.00579862500007,-7.7920140089998995],[111.00558595000018,-7.7919262369999274],[111.00529791400015,-7.7918328919999453],[111.00493428800007,-7.7916836009999315],[111.00449683000011,-7.7915245359999403],[111.00417746600016,-7.7913950479999698],[111.00376889900019,-7.7913070829998787],[111.00322810600011,-7.7911410649999766],[111.00297078069366,-7.7910703657431668],[111.00271127200017,-7.7912861299998326],[111.00253656000012,-7.7916078199999674],[111.00239173600005,-7.7917520079998326],[111.00227733100007,-7.7919212539998739],[111.00212226200011,-7.7920746939999503],[111.001902212,-7.7922305389998883],[111.0017034280001,-7.7924294209998379],[111.00139781700011,-7.7925651519999519],[111.00110164800003,-7.7925070709999318],[111.00093706300004,-7.7926543109999784],[111.00082066000004,-7.7928332899999191],[111.00076341900001,-7.792992126999934],[111.00075490800015,-7.7930944019999515],[111.00036497100012,-7.7934178699999279],[111.00024129899998,-7.7935703619999117],[110.99958930100007,-7.7938214819998848],[110.99930258100011,-7.7940700849998734],[110.99933375300003,-7.7942242629999328],[110.99949800700011,-7.7943205929998953],[110.99968101299999,-7.7943852299999321],[110.99988069000011,-7.7944343179999009],[111.00010731200018,-7.794471266999949],[111.00021171200012,-7.7944815199999766],[111.00026867600002,-7.7945076019998965],[111.00029737000011,-7.7945424569999773],[111.00032060100017,-7.7945781599999009],[111.00035922800009,-7.7948173829999519],[111.00049675300016,-7.7954735499998833],[111.00060251500003,-7.7958184659999574],[111.00063337500012,-7.7958694449998802],[111.00070123400013,-7.795896556999935],[111.00079248600002,-7.7959448329999077],[111.00084390800004,-7.7959790329999805],[111.00090884800005,-7.7960233809999409],[111.00095303000018,-7.7960547729999234],[111.00115809300019,-7.7962007799999355],[111.00141515100012,-7.7963099969999234],[111.00155273400009,-7.7963750469999695],[111.00174883500006,-7.7964042419998236],[111.00191427900006,-7.7964249849999305],[111.0021637210001,-7.7964729619998252],[111.00234452500013,-7.7964640379999537],[111.00251512900019,-7.7964460599998802],[111.00259519000014,-7.7965250539999715],[111.002589188,-7.796681190999891],[111.00260857000001,-7.7968532299999538],[111.00266613600019,-7.7974166929999456],[111.00295890500013,-7.7976064689999021],[111.00300647500018,-7.7977179399998704],[111.0030290480002,-7.7978823819998979],[111.00295771400016,-7.7982431599999131],[111.00287982100019,-7.7983311339999091],[111.00287644000014,-7.7984353789998977],[111.00295359100005,-7.7985389979999695],[111.00281367200012,-7.7987276469999642],[111.00273750100013,-7.798816932999955],[111.00264457500009,-7.7989519919999566],[111.00262839300018,-7.7990976699999237],[111.00270964700013,-7.7991921909999178],[111.00286183500009,-7.7993669909998857],[111.00292370500006,-7.7994428909999556],[111.00295771400016,-7.7996084459999793],[111.00294516696653,-7.799672878269746]]]},"properties":{"FID":4,"OBJECTID_1":17917,"NAMOBJ":"Mlokomanis Kulon","FCODE":"BA03070040","REMARK":"Wilayah Administrasi Kelurahan/Desa","BATASRW":10,"Lingkungan":"Soko Kidul","LUAS":5.3586138700000001,"METADATA":"TASWIL1000020221227_DATA_BATAS_DESAKELURAHAN","SRS_ID":"SRGI 2013","KDBBPS":"3312","KDCBPS":"3312150","KDCPUM":"33.12.13","KDEBPS":"3312150009","KDEPUM":"33.12.13.1009","KDPBPS":"33","KDPKAB":"33.12","KDPPUM":"33","LUASWH":0,"TIPADM":2,"WADMKC":"Ngadirojo","WADMKD":"Mlokomanis Kulon","WADMKK":"Wonogiri","WADMPR":"Jawa Tengah","WIADKC":" ","WIADKK":" ","WIADPR":" ","WIADKD":" ","UUPP":"Hasil Delineasi Batas Desa 2017","SIGCODE":16318}},{"type":"Feature","id":5,"geometry":{"type":"Polygon","coordinates":[[[110.99909185719548,-7.8001600984400739],[110.99898470700015,-7.799519471999929],[110.99886358400016,-7.7979356159999611],[110.99763135500007,-7.7979822069999045],[110.99572291300007,-7.7981159249999337],[110.99548634000013,-7.7974326939998946],[110.99523769400014,-7.797411264999937],[110.9947563020001,-7.7973818629998846],[110.9942228590001,-7.7976643569999737],[110.99357060600005,-7.7979967599999327],[110.99305442200017,-7.798158459999911],[110.99219675900019,-7.7981275659999483],[110.9913696050001,-7.7980264239999428],[110.99053801300005,-7.7978118599999107],[110.98972458000014,-7.7976844979999669],[110.9886329731309,-7.7977129427308114],[110.98830672299999,-7.7980237429998738],[110.98811951700014,-7.7987848189998772],[110.98802351099999,-7.7992778399998883],[110.98778831800018,-7.7997277799998983],[110.9875435260002,-7.8001107059998844],[110.98744272800019,-7.8003213169998276],[110.987505118,-7.8005032119999669],[110.98772109700002,-7.8006372439999154],[110.98776428700006,-7.8008478579999405],[110.98785067300008,-7.801072832999921],[110.98805225400019,-7.8012164399999051],[110.98828743200011,-7.8013265389999447],[110.98840529300014,-7.8014523379998764],[110.98849016100007,-7.8016799509998691],[110.988431397,-7.8021833559999436],[110.98844578300015,-7.8026811679999355],[110.98846977300019,-7.8029923019999501],[110.98852256100008,-7.803274715999919],[110.98868093700008,-7.8037294529999031],[110.98879612200011,-7.8039879359998849],[110.98894012300019,-7.8035044859999516],[110.98921370800019,-7.8033608949999689],[110.98952300000019,-7.8032220009999378],[110.98965200000004,-7.8031830009999794],[110.9899460000002,-7.8031779999999458],[110.98996099999999,-7.8031800009999301],[110.99028883200015,-7.803217267999969],[110.99052400000005,-7.8032439999999497],[110.99074500000006,-7.8032679999998322],[110.99096100000014,-7.8032889989999603],[110.99116399900015,-7.8032349999999155],[110.99131300000016,-7.8032429999998953],[110.99168800000007,-7.8032960009999215],[110.991758,-7.8031839999998738],[110.99191200000013,-7.8029829999998697],[110.99198482600013,-7.8029407709999532],[110.9922000000002,-7.8028159999998934],[110.99238800000012,-7.8028199999998833],[110.99285500000019,-7.8028249999999275],[110.99290400000018,-7.8027449999999021],[110.99297459900004,-7.8026094679999574],[110.99306600000006,-7.8024339999999484],[110.99326600000006,-7.8023529999998686],[110.99438400000003,-7.8017639999999346],[110.99448900000004,-7.8015440009999111],[110.99464100000017,-7.801281999999901],[110.99479000000008,-7.8011949999998933],[110.99489434900011,-7.8011925299999803],[110.99495899999999,-7.8011910009999497],[110.99513100000001,-7.8011629999999172],[110.99566899900003,-7.8010419999999385],[110.99586124400008,-7.8010320859999069],[110.996464,-7.8010009999999284],[110.99655500000006,-7.8009970009999279],[110.99672600000019,-7.8009259999999472],[110.99697000000015,-7.8008859999999345],[110.99753700000014,-7.8008139999998889],[110.99755948600006,-7.8007804009998836],[110.99762400000009,-7.8006839999998761],[110.99763000000002,-7.8005529999999794],[110.99767899900007,-7.800470000999951],[110.99777100000017,-7.8004519989999608],[110.99802300000005,-7.800527999999872],[110.99861600000008,-7.8007879999999545],[110.99883,-7.8007579999999734],[110.99886700000008,-7.8006889999999771],[110.99884600000013,-7.8005290009999726],[110.99888200000004,-7.8003689999999324],[110.99891700000012,-7.8003309999999146],[110.99898100000007,-7.8002621999999064],[110.9990370000001,-7.8002019999998993],[110.99909185719548,-7.8001600984400739]]]},"properties":{"FID":5,"OBJECTID_1":17917,"NAMOBJ":"Mlokomanis Kulon","FCODE":"BA03070040","REMARK":"Wilayah Administrasi Kelurahan/Desa","BATASRW":2,"Lingkungan":"Pocung","LUAS":5.3586138700000001,"METADATA":"TASWIL1000020221227_DATA_BATAS_DESAKELURAHAN","SRS_ID":"SRGI 2013","KDBBPS":"3312","KDCBPS":"3312150","KDCPUM":"33.12.13","KDEBPS":"3312150009","KDEPUM":"33.12.13.1009","KDPBPS":"33","KDPKAB":"33.12","KDPPUM":"33","LUASWH":0,"TIPADM":2,"WADMKC":"Ngadirojo","WADMKD":"Mlokomanis Kulon","WADMKK":"Wonogiri","WADMPR":"Jawa Tengah","WIADKC":" ","WIADKK":" ","WIADPR":" ","WIADKD":" ","UUPP":"Hasil Delineasi Batas Desa 2017","SIGCODE":16318}},{"type":"Feature","id":6,"geometry":{"type":"Polygon","coordinates":[[[110.99933357266093,-7.7940432134183766],[110.99894979100009,-7.7940028089998918],[110.99881675400019,-7.7939946689999147],[110.99866126000012,-7.7940106849999324],[110.99855699000017,-7.7940095219998966],[110.99833469200007,-7.794046981999827],[110.99824784800018,-7.7940748569998846],[110.99812314100006,-7.7941156239999714],[110.99798440500012,-7.7942205789999548],[110.99787914500013,-7.7943081569999322],[110.99769926400006,-7.7945213739998849],[110.99759597500014,-7.7946311619999165],[110.99749749400007,-7.794707720999952],[110.99737887300012,-7.7947995879999326],[110.99726991800009,-7.7948205609998809],[110.99720780000007,-7.7948198679999336],[110.99694783700016,-7.7948524689999203],[110.99661710400005,-7.7948643119999588],[110.99613129800019,-7.7948544569999285],[110.9957895710001,-7.7948573019999685],[110.9952018890001,-7.7947956429999294],[110.99476233100017,-7.7946528109999349],[110.99425644200016,-7.7944541339999205],[110.9938886380001,-7.7944078749999335],[110.99358551700016,-7.7943312739998873],[110.99312569,-7.7939829779998604],[110.99287269400003,-7.7938393139999675],[110.99278751000008,-7.793865301999972],[110.99276041700011,-7.7939071569999783],[110.99267958600007,-7.7939927889999581],[110.99259895200015,-7.7940606719998868],[110.99251147300009,-7.7941482449999171],[110.99241528600004,-7.7942353909999724],[110.99232027000016,-7.7943335289999709],[110.9920766680001,-7.7945363259998999],[110.99197798900019,-7.7946306339998728],[110.99179520400008,-7.7947062529999016],[110.9916572190001,-7.7946961939998687],[110.99157515200017,-7.7946697179999092],[110.99147450100008,-7.7946543949998954],[110.99134886100018,-7.7946489609998935],[110.99110336500013,-7.7946999569999207],[110.9907137150002,-7.7948130249998826],[110.99046396700015,-7.7948618099999294],[110.98999869000011,-7.7948415329999534],[110.98970638900016,-7.7947894599999472],[110.98921377900007,-7.7947928409998894],[110.98857369937627,-7.7946424534888479],[110.98858518400004,-7.7948358339999686],[110.9886139680001,-7.7953480069999159],[110.98864755200003,-7.7958171029999335],[110.98860434700009,-7.7962048199998435],[110.98845075600013,-7.7963675629998761],[110.98843635100008,-7.7965973219999682],[110.98851313500001,-7.7969180309999615],[110.98849393000012,-7.7971765099999288],[110.98869068800008,-7.7976579609999703],[110.9886329731309,-7.7977129427308114],[110.98972458000014,-7.7976844979999669],[110.99053801300005,-7.7978118599999107],[110.9913696050001,-7.7980264239999428],[110.99219675900019,-7.7981275659999483],[110.99305442200017,-7.798158459999911],[110.99357060600005,-7.7979967599999327],[110.9942228590001,-7.7976643569999737],[110.9947563020001,-7.7973818629998846],[110.99523769400014,-7.797411264999937],[110.99548634000013,-7.7974326939998946],[110.99572291300007,-7.7981159249999337],[110.99763135500007,-7.7979822069999045],[110.99886358400016,-7.7979356159999611],[110.99898470700015,-7.799519471999929],[110.99909185719548,-7.8001600984400739],[110.99950700000011,-7.799842999999953],[110.99959700000005,-7.7997769999998923],[110.99991900000009,-7.7995409999999197],[111,-7.7994729999999777],[111.00001568900018,-7.7994600399998717],[111.00039100000004,-7.7991499999998837],[111.00071200000014,-7.7989599999999655],[111.00098600000007,-7.7989629989999685],[111.00111099899999,-7.7990250009999613],[111.00122100000016,-7.7990640009999765],[111.00133800000003,-7.7990880009999159],[111.00155000000018,-7.7990880009999159],[111.00177900000011,-7.7989829999998506],[111.0019201400001,-7.7988728729998797],[111.00201434900015,-7.7988711389999139],[111.00211994099999,-7.798962084999971],[111.00235992300014,-7.7993067229999724],[111.00258550600006,-7.7995891349999056],[111.00291188000006,-7.7996752929999502],[111.00294516696653,-7.799672878269746],[111.00295771400016,-7.7996084459999793],[111.00292370500006,-7.7994428909999556],[111.00286183500009,-7.7993669909998857],[111.00270964700013,-7.7991921909999178],[111.00262839300018,-7.7990976699999237],[111.00264457500009,-7.7989519919999566],[111.00273750100013,-7.798816932999955],[111.00281367200012,-7.7987276469999642],[111.00295359100005,-7.7985389979999695],[111.00287644000014,-7.7984353789998977],[111.00287982100019,-7.7983311339999091],[111.00295771400016,-7.7982431599999131],[111.0030290480002,-7.7978823819998979],[111.00300647500018,-7.7977179399998704],[111.00295890500013,-7.7976064689999021],[111.00266613600019,-7.7974166929999456],[111.00260857000001,-7.7968532299999538],[111.002589188,-7.796681190999891],[111.00259519000014,-7.7965250539999715],[111.00251512900019,-7.7964460599998802],[111.00234452500013,-7.7964640379999537],[111.0021637210001,-7.7964729619998252],[111.00191427900006,-7.7964249849999305],[111.00174883500006,-7.7964042419998236],[111.00155273400009,-7.7963750469999695],[111.00141515100012,-7.7963099969999234],[111.00115809300019,-7.7962007799999355],[111.00095303000018,-7.7960547729999234],[111.00090884800005,-7.7960233809999409],[111.00084390800004,-7.7959790329999805],[111.00079248600002,-7.7959448329999077],[111.00070123400013,-7.795896556999935],[111.00063337500012,-7.7958694449998802],[111.00060251500003,-7.7958184659999574],[111.00049675300016,-7.7954735499998833],[111.00035922800009,-7.7948173829999519],[111.00032060100017,-7.7945781599999009],[111.00029737000011,-7.7945424569999773],[111.00026867600002,-7.7945076019998965],[111.00021171200012,-7.7944815199999766],[111.00010731200018,-7.794471266999949],[110.99988069000011,-7.7944343179999009],[110.99968101299999,-7.7943852299999321],[110.99949800700011,-7.7943205929998953],[110.99933375300003,-7.7942242629999328],[110.99930258100011,-7.7940700849998734],[110.99933357266093,-7.7940432134183766]]]},"properties":{"FID":6,"OBJECTID_1":17917,"NAMOBJ":"Mlokomanis Kulon","FCODE":"BA03070040","REMARK":"Wilayah Administrasi Kelurahan/Desa","BATASRW":3,"Lingkungan":"Bonagung","LUAS":5.3586138700000001,"METADATA":"TASWIL1000020221227_DATA_BATAS_DESAKELURAHAN","SRS_ID":"SRGI 2013","KDBBPS":"3312","KDCBPS":"3312150","KDCPUM":"33.12.13","KDEBPS":"3312150009","KDEPUM":"33.12.13.1009","KDPBPS":"33","KDPKAB":"33.12","KDPPUM":"33","LUASWH":0,"TIPADM":2,"WADMKC":"Ngadirojo","WADMKD":"Mlokomanis Kulon","WADMKK":"Wonogiri","WADMPR":"Jawa Tengah","WIADKC":" ","WIADKK":" ","WIADPR":" ","WIADKD":" ","UUPP":"Hasil Delineasi Batas Desa 2017","SIGCODE":16318}},{"type":"Feature","id":7,"geometry":{"type":"Polygon","coordinates":[[[110.99958930397207,-7.7938214816344384],[110.99935670200006,-7.7938500899999781],[110.998317853,-7.7937414319999334],[110.99754704100019,-7.7935352239999247],[110.99602393900011,-7.7929969069999743],[110.99470679300003,-7.7926832509999713],[110.99314875300007,-7.7924139299999524],[110.99212858900006,-7.7924119799998834],[110.9912365360002,-7.7924438219999388],[110.99043203000008,-7.7923811449999221],[110.98997449900014,-7.7923725759999343],[110.98933803600016,-7.7923420789999795],[110.98886032200005,-7.792171074999942],[110.98869874400003,-7.7922310439999478],[110.988623512,-7.791615598999897],[110.98849526536077,-7.7916469916510778],[110.98839328700006,-7.791781938999975],[110.98835488400016,-7.7920116969999071],[110.98832127500015,-7.7924855749999438],[110.98832126200006,-7.7929546689999256],[110.98833565300009,-7.7932275089999621],[110.9885180230001,-7.7936535269999467],[110.9886428050001,-7.7938976499999058],[110.98854680700015,-7.7941896339999062],[110.98857369937627,-7.7946424534888479],[110.98921377900007,-7.7947928409998894],[110.98970638900016,-7.7947894599999472],[110.98999869000011,-7.7948415329999534],[110.99046396700015,-7.7948618099999294],[110.9907137150002,-7.7948130249998826],[110.99110336500013,-7.7946999569999207],[110.99134886100018,-7.7946489609998935],[110.99147450100008,-7.7946543949998954],[110.99157515200017,-7.7946697179999092],[110.9916572190001,-7.7946961939998687],[110.99179520400008,-7.7947062529999016],[110.99197798900019,-7.7946306339998728],[110.9920766680001,-7.7945363259998999],[110.99232027000016,-7.7943335289999709],[110.99241528600004,-7.7942353909999724],[110.99251147300009,-7.7941482449999171],[110.99259895200015,-7.7940606719998868],[110.99267958600007,-7.7939927889999581],[110.99276041700011,-7.7939071569999783],[110.99278751000008,-7.793865301999972],[110.99287269400003,-7.7938393139999675],[110.99312569,-7.7939829779998604],[110.99358551700016,-7.7943312739998873],[110.9938886380001,-7.7944078749999335],[110.99425644200016,-7.7944541339999205],[110.99476233100017,-7.7946528109999349],[110.9952018890001,-7.7947956429999294],[110.9957895710001,-7.7948573019999685],[110.99613129800019,-7.7948544569999285],[110.99661710400005,-7.7948643119999588],[110.99694783700016,-7.7948524689999203],[110.99720780000007,-7.7948198679999336],[110.99726991800009,-7.7948205609998809],[110.99737887300012,-7.7947995879999326],[110.99749749400007,-7.794707720999952],[110.99759597500014,-7.7946311619999165],[110.99769926400006,-7.7945213739998849],[110.99787914500013,-7.7943081569999322],[110.99798440500012,-7.7942205789999548],[110.99812314100006,-7.7941156239999714],[110.99824784800018,-7.7940748569998846],[110.99833469200007,-7.794046981999827],[110.99855699000017,-7.7940095219998966],[110.99866126000012,-7.7940106849999324],[110.99881675400019,-7.7939946689999147],[110.99894979100009,-7.7940028089998918],[110.99933357266093,-7.7940432134183766],[110.99958930397207,-7.7938214816344384]]]},"properties":{"FID":7,"OBJECTID_1":17917,"NAMOBJ":"Mlokomanis Kulon","FCODE":"BA03070040","REMARK":"Wilayah Administrasi Kelurahan/Desa","BATASRW":4,"Lingkungan":"Tempuran","LUAS":5.3586138700000001,"METADATA":"TASWIL1000020221227_DATA_BATAS_DESAKELURAHAN","SRS_ID":"SRGI 2013","KDBBPS":"3312","KDCBPS":"3312150","KDCPUM":"33.12.13","KDEBPS":"3312150009","KDEPUM":"33.12.13.1009","KDPBPS":"33","KDPKAB":"33.12","KDPPUM":"33","LUASWH":0,"TIPADM":2,"WADMKC":"Ngadirojo","WADMKD":"Mlokomanis Kulon","WADMKK":"Wonogiri","WADMPR":"Jawa Tengah","WIADKC":" ","WIADKK":" ","WIADPR":" ","WIADKD":" ","UUPP":"Hasil Delineasi Batas Desa 2017","SIGCODE":16318}},{"type":"Feature","id":8,"geometry":{"type":"Polygon","coordinates":[[[111.00673940645498,-7.7873971205524413],[111.00594381000013,-7.7876277179998965],[111.00589112900013,-7.787267652999958],[111.00455570100013,-7.7874388939999335],[111.00430954600006,-7.7874396159999719],[111.00393720700009,-7.7875637369999708],[111.00354453300008,-7.7876460299999053],[111.00311388200009,-7.7877140309999504],[111.00309589700009,-7.7874784799998906],[111.00250637300019,-7.787565701999938],[111.00214316400007,-7.7877136059998975],[111.00146092000011,-7.7879590789999611],[111.00118872100006,-7.7881189859999722],[111.00090632000007,-7.7882735099999536],[111.00073127600012,-7.7881269159998965],[111.00035834300007,-7.7883176519998756],[110.99989458100009,-7.7885665879999806],[110.99935176400004,-7.788676692999843],[110.998910395,-7.7887938849999614],[110.99856561900009,-7.7888661499998761],[110.99819134600011,-7.7890085049999129],[110.99798713500019,-7.7891152759999613],[110.99775462100013,-7.7891097279999713],[110.99762795500015,-7.7890777329998855],[110.99751683500017,-7.7890288289998466],[110.99742331900006,-7.7890858519998574],[110.99717787500003,-7.7891016779998949],[110.9971169210001,-7.7891147779999415],[110.99646734400011,-7.7892543849999356],[110.99605956900001,-7.7893591159999005],[110.99572274200017,-7.7895591809999587],[110.99545170200008,-7.789615094999931],[110.99523797799998,-7.7897609549998492],[110.99525499200018,-7.789845181999965],[110.99525749100013,-7.7899318809999727],[110.9951288850001,-7.7899616489999062],[110.99485091300005,-7.7900174859999538],[110.99462691900015,-7.7900013849999254],[110.99445666700012,-7.789929883999946],[110.9941828960001,-7.7899198969999475],[110.99408105500009,-7.7900366349999217],[110.99386127700006,-7.7901589909999416],[110.99356016100018,-7.790114029999927],[110.99346163000013,-7.7901323599999159],[110.99326231200013,-7.7902350679999017],[110.99314680300006,-7.7903144949999046],[110.99306175500016,-7.7903511529999037],[110.9929193600002,-7.7903738329999328],[110.99274896300005,-7.7904204689999688],[110.99257793900011,-7.7904320069999358],[110.99242878699999,-7.7903931689999126],[110.99225373900009,-7.7903344719998699],[110.99211431999998,-7.790382541999918],[110.99198934400016,-7.7904190389999144],[110.99190810100009,-7.7905629729999646],[110.99177129600002,-7.7906953529998759],[110.99157116900011,-7.7908882029999518],[110.99144388300004,-7.7910053419999485],[110.9912693660001,-7.7911236899998926],[110.99113573600005,-7.7912257119999708],[110.99086953500012,-7.7914089259999741],[110.99058572300009,-7.7915007579999269],[110.9904127640001,-7.7914663269999096],[110.99013437300005,-7.7914858649999132],[110.98987910200015,-7.7914287689998218],[110.98941310300006,-7.7912439159998712],[110.98923978100009,-7.7912419829999067],[110.98910357300002,-7.7913638509999714],[110.98878353000009,-7.7913976099998195],[110.98866455633828,-7.7913651680364069],[110.98864287100008,-7.7914516659999435],[110.98849526536077,-7.7916469916510778],[110.988623512,-7.791615598999897],[110.98869874400003,-7.7922310439999478],[110.98886032200005,-7.792171074999942],[110.98933803600016,-7.7923420789999795],[110.98997449900014,-7.7923725759999343],[110.99043203000008,-7.7923811449999221],[110.9912365360002,-7.7924438219999388],[110.99212858900006,-7.7924119799998834],[110.99314875300007,-7.7924139299999524],[110.99470679300003,-7.7926832509999713],[110.99602393900011,-7.7929969069999743],[110.99754704100019,-7.7935352239999247],[110.998317853,-7.7937414319999334],[110.99935670200006,-7.7938500899999781],[110.99958930397207,-7.7938214816344384],[111.00024129899998,-7.7935703619999117],[111.00036497100012,-7.7934178699999279],[111.00075490800015,-7.7930944019999515],[111.00076341900001,-7.792992126999934],[111.00082066000004,-7.7928332899999191],[111.00093706300004,-7.7926543109999784],[111.00110164800003,-7.7925070709999318],[111.00139781700011,-7.7925651519999519],[111.0017034280001,-7.7924294209998379],[111.001902212,-7.7922305389998883],[111.00212226200011,-7.7920746939999503],[111.00227733100007,-7.7919212539998739],[111.00239173600005,-7.7917520079998326],[111.00253656000012,-7.7916078199999674],[111.00271127200017,-7.7912861299998326],[111.00297078069366,-7.7910703657431668],[111.00295569500008,-7.7910662209999373],[111.00315862900015,-7.7908391499999539],[111.00349952000005,-7.7905347839999308],[111.00379134500008,-7.7902419839999197],[111.00389370600016,-7.7901039619998755],[111.00400010500016,-7.7899858659998813],[111.00412434500009,-7.7899233509999704],[111.00441043300015,-7.7898952839999538],[111.00462720800004,-7.7897312919999422],[111.00475736100009,-7.7895628669999724],[111.00504847600013,-7.7892629079999551],[111.0053767440001,-7.78905689599992],[111.00565259600017,-7.7888557869999318],[111.00580801900014,-7.7886320649999448],[111.00592579600004,-7.7884672149999119],[111.00604771500008,-7.78828942399997],[111.00627758600001,-7.7879706839999585],[111.0061185520002,-7.7878425269998957],[111.00624068000019,-7.787714666999932],[111.0064081970001,-7.7875915719999398],[111.00653009100006,-7.7875526939999418],[111.00676027800017,-7.7874719559998766],[111.00673954800004,-7.7874293349998425],[111.00673940645498,-7.7873971205524413]]]},"properties":{"FID":8,"OBJECTID_1":17917,"NAMOBJ":"Mlokomanis Kulon","FCODE":"BA03070040","REMARK":"Wilayah Administrasi Kelurahan/Desa","BATASRW":5,"Lingkungan":"Pencil","LUAS":5.3586138700000001,"METADATA":"TASWIL1000020221227_DATA_BATAS_DESAKELURAHAN","SRS_ID":"SRGI 2013","KDBBPS":"3312","KDCBPS":"3312150","KDCPUM":"33.12.13","KDEBPS":"3312150009","KDEPUM":"33.12.13.1009","KDPBPS":"33","KDPKAB":"33.12","KDPPUM":"33","LUASWH":0,"TIPADM":2,"WADMKC":"Ngadirojo","WADMKD":"Mlokomanis Kulon","WADMKK":"Wonogiri","WADMPR":"Jawa Tengah","WIADKC":" ","WIADKK":" ","WIADPR":" ","WIADKD":" ","UUPP":"Hasil Delineasi Batas Desa 2017","SIGCODE":16318}},{"type":"Feature","id":9,"geometry":{"type":"Polygon","coordinates":[[[111.00148394209191,-7.7879507955970553],[111.00214316400007,-7.7877136059998975],[111.00250637300019,-7.787565701999938],[111.00309589700009,-7.7874784799998906],[111.00311388200009,-7.7877140309999504],[111.00354453300008,-7.7876460299999053],[111.00393720700009,-7.7875637369999708],[111.00430954600006,-7.7874396159999719],[111.00455570100013,-7.7874388939999335],[111.00589112900013,-7.787267652999958],[111.00594381000013,-7.7876277179998965],[111.00673940645498,-7.7873971205524413],[111.00673906500009,-7.7873208709999062],[111.00695125400017,-7.7865318669998373],[111.00687999300004,-7.7865249099999687],[111.00719192999998,-7.784862723999936],[111.00730321600014,-7.7848982749999323],[111.00733680700017,-7.7844768469999508],[111.00722793800014,-7.7843947389999357],[111.00716760900002,-7.7841051599999673],[111.00697863000011,-7.7839528219999465],[111.00668610900016,-7.7837588819999723],[111.006607223,-7.7835788799999364],[111.00668522799998,-7.7833197349999637],[111.00694720799999,-7.7831435349999651],[111.00732402800008,-7.7830321759998924],[111.0078823730002,-7.7832233019998966],[111.00794382000004,-7.7828946349998773],[111.00774225500015,-7.7828346059998808],[111.00781377500005,-7.782638947999942],[111.00796959300015,-7.7821379889999776],[111.0076578070001,-7.7821171779999645],[111.00777032736909,-7.7814667779776983],[111.0075020000001,-7.78144199999997],[111.0073455860001,-7.7814363929999217],[111.00725100000011,-7.7814329999999359],[111.006958,-7.7815920009999218],[111.00677400000006,-7.7817310009999687],[111.00651900000008,-7.7816100009999332],[111.00639300000017,-7.7815649999999437],[111.00604700000014,-7.7818969999999581],[111.00593900000007,-7.7819949999998812],[111.00572400000004,-7.7819989999999279],[111.00513530900008,-7.7817532269999674],[111.00511799999998,-7.7817459999998846],[111.00476900000007,-7.7815489999999272],[111.00455100000016,-7.7814229999999611],[111.00435500000009,-7.7814339999999333],[111.00420000000008,-7.7815509999999222],[111.00429800000018,-7.7818689999999151],[111.00437000000011,-7.782105999999942],[111.00436300000007,-7.7822209999999359],[111.00419699999998,-7.7824169999998958],[111.00390100000004,-7.7826489999998216],[111.00366000000014,-7.7827830009998706],[111.00360213500005,-7.7827860129999635],[111.00300700000014,-7.7828169999999659],[111.00278100000008,-7.7828529999999319],[111.00248000000005,-7.7829760009999518],[111.00216399900012,-7.7830099999999334],[111.00206898810421,-7.7830282344757507],[111.00195004700015,-7.7832196379999345],[111.00189107900007,-7.7833343579999337],[111.00182296500014,-7.7834733829998868],[111.00177185600006,-7.7836791609999523],[111.00175868500014,-7.7838653929999282],[111.00172904500016,-7.7841357549999088],[111.00174567300013,-7.7843986309998741],[111.00166455300018,-7.7847298509999519],[111.00158133000014,-7.7851890119999325],[111.00150965700016,-7.7856312619999244],[111.00146580400013,-7.7862777019999498],[111.00149181600017,-7.7869795109999131],[111.00145073500005,-7.7873971649998452],[111.00144543400006,-7.7876892629999475],[111.00148394209191,-7.7879507955970553]]]},"properties":{"FID":9,"OBJECTID_1":17917,"NAMOBJ":"Mlokomanis Kulon","FCODE":"BA03070040","REMARK":"Wilayah Administrasi Kelurahan/Desa","BATASRW":7,"Lingkungan":"Pondok","LUAS":5.3586138700000001,"METADATA":"TASWIL1000020221227_DATA_BATAS_DESAKELURAHAN","SRS_ID":"SRGI 2013","KDBBPS":"3312","KDCBPS":"3312150","KDCPUM":"33.12.13","KDEBPS":"3312150009","KDEPUM":"33.12.13.1009","KDPBPS":"33","KDPKAB":"33.12","KDPPUM":"33","LUASWH":0,"TIPADM":2,"WADMKC":"Ngadirojo","WADMKD":"Mlokomanis Kulon","WADMKK":"Wonogiri","WADMPR":"Jawa Tengah","WIADKC":" ","WIADKK":" ","WIADPR":" ","WIADKD":" ","UUPP":"Hasil Delineasi Batas Desa 2017","SIGCODE":16318}}]}