{"type":"FeatureCollection","features":[{"type":"Feature","id":0,"geometry":{"type":"Point","coordinates":[110.99002078862925,-7.7894820141069721]},"properties":{"FID":0,"Id":0,"Jenis":"Masjid","Nama":"Masjid Al Jami Jaten"}},{"type":"Feature","id":1,"geometry":{"type":"Point","coordinates":[110.99165754357038,-7.7876313203439205]},"properties":{"FID":1,"Id":0,"Jenis":"Lapangan","Nama":"Lapangan Voli Jaten"}},{"type":"Feature","id":2,"geometry":{"type":"Point","coordinates":[111.00005968341847,-7.7861322731502485]},"properties":{"FID":2,"Id":0,"Jenis":"Lapangan","Nama":"Lapangan Sepak Bola, Mlokomanis Kulon"}},{"type":"Feature","id":3,"geometry":{"type":"Point","coordinates":[111.00513860949414,-7.7861259103145963]},"properties":{"FID":3,"Id":0,"Jenis":"Masjid","Nama":"Masjid Baiturrohim Pondok"}},{"type":"Feature","id":4,"geometry":{"type":"Point","coordinates":[111.01047094241579,-7.7860844135603395]},"properties":{"FID":4,"Id":0,"Jenis":"Masjid","Nama":"Masjid Ngasinan"}},{"type":"Feature","id":5,"geometry":{"type":"Point","coordinates":[111.01029112314737,-7.7862504005773561]},"properties":{"FID":5,"Id":0,"Jenis":"Kesehatan","Nama":"Bidan Mulyani Ngasinan"}},{"type":"Feature","id":6,"geometry":{"type":"Point","coordinates":[111.01098965184397,-7.787011174405345]},"properties":{"FID":6,"Id":0,"Jenis":"UMKM","Nama":"UMKM Mebel"}},{"type":"Feature","id":7,"geometry":{"type":"Point","coordinates":[111.01121788399237,-7.7870319227824751]},"properties":{"FID":7,"Id":0,"Jenis":"Lapangan","Nama":"Lapangan Voli Ngasinan"}},{"type":"Feature","id":8,"geometry":{"type":"Point","coordinates":[111.0075242406059,-7.7883139995857906]},"properties":{"FID":8,"Id":0,"Jenis":"Sekolah","Nama":"SDN 02 Mlokomanis Kulon"}},{"type":"Feature","id":9,"geometry":{"type":"Point","coordinates":[110.9997985305117,-7.7859552203321014]},"properties":{"FID":9,"Id":0,"Jenis":"KMP","Nama":"KMP Mlokomanis Kulon"}},{"type":"Feature","id":10,"geometry":{"type":"Point","coordinates":[111.00702714407056,-7.7884436769428254]},"properties":{"FID":10,"Id":0,"Jenis":"Sekolah","Nama":"TK Dharma Wanita"}},{"type":"Feature","id":11,"geometry":{"type":"Point","coordinates":[111.00697819934061,-7.7883410070566814]},"properties":{"FID":11,"Id":0,"Jenis":"Masjid","Nama":"Masjid At Taubah Soko Lor"}},{"type":"Feature","id":12,"geometry":{"type":"Point","coordinates":[111.01190258043763,-7.7904346566313176]},"properties":{"FID":12,"Id":0,"Jenis":"Pemerintah","Nama":"BPP Ngadirojo"}},{"type":"Feature","id":13,"geometry":{"type":"Point","coordinates":[111.00396891973368,-7.792063836493635]},"properties":{"FID":13,"Id":0,"Jenis":"Masjid","Nama":"Masjid Al Amin Soko Kidul"}},{"type":"Feature","id":14,"geometry":{"type":"Point","coordinates":[111.00368795212675,-7.793533513206806]},"properties":{"FID":14,"Id":0,"Jenis":"Lainnya","Nama":"Punden Soko Kidul"}},{"type":"Feature","id":15,"geometry":{"type":"Point","coordinates":[111.00337942375891,-7.7936880021648367]},"properties":{"FID":15,"Id":0,"Jenis":"Lapangan","Nama":"Lapangan Voli Soko Kidul"}},{"type":"Feature","id":16,"geometry":{"type":"Point","coordinates":[111.01043636178736,-7.7947019061937715]},"properties":{"FID":16,"Id":0,"Jenis":"Lapangan","Nama":"Lapangan Voli Bulurejo"}},{"type":"Feature","id":17,"geometry":{"type":"Point","coordinates":[111.00953034931948,-7.7954211832675089]},"properties":{"FID":17,"Id":0,"Jenis":"UMKM","Nama":"UMKM Batik Bulurejo"}},{"type":"Feature","id":18,"geometry":{"type":"Point","coordinates":[111.0100905555019,-7.7955110929017275]},"properties":{"FID":18,"Id":0,"Jenis":"UMKM","Nama":"NewMan Farm Bulurejo"}},{"type":"Feature","id":19,"geometry":{"type":"Point","coordinates":[111.01040178115882,-7.795504176776018]},"properties":{"FID":19,"Id":0,"Jenis":"Masjid","Nama":"Masjid Al Fatah Bulurejo"}},{"type":"Feature","id":20,"geometry":{"type":"Point","coordinates":[111.00735868584694,-7.7984153124094568]},"properties":{"FID":20,"Id":0,"Jenis":"Lainnya","Nama":"Gapura Masuk Mlokomanis Kulon"}},{"type":"Feature","id":21,"geometry":{"type":"Point","coordinates":[110.99965412180711,-7.7970049760548878]},"properties":{"FID":21,"Id":0,"Jenis":"Masjid","Nama":"Masjid Kebonagung"}},{"type":"Feature","id":22,"geometry":{"type":"Point","coordinates":[110.9985821223222,-7.7967698277807784]},"properties":{"FID":22,"Id":0,"Jenis":"Lapangan","Nama":"Lapangan Voli Kebonagung"}},{"type":"Feature","id":23,"geometry":{"type":"Point","coordinates":[110.99863745132788,-7.7964862666266983]},"properties":{"FID":23,"Id":0,"Jenis":"Lainnya","Nama":"Makam Tri Sasono Loyo"}},{"type":"Feature","id":24,"geometry":{"type":"Point","coordinates":[110.99819827734535,-7.7914910948333747]},"properties":{"FID":24,"Id":0,"Jenis":"UMKM","Nama":"UMKM Tahu"}},{"type":"Feature","id":25,"geometry":{"type":"Point","coordinates":[110.99787408395275,-7.7919557720294454]},"properties":{"FID":25,"Id":0,"Jenis":"Lapangan","Nama":"Lapangan Voli Pencil"}},{"type":"Feature","id":26,"geometry":{"type":"Point","coordinates":[110.998652148095,-7.7907886758160529]},"properties":{"FID":26,"Id":0,"Jenis":"Pemerintah","Nama":"Kantor Kelurahan"}},{"type":"Feature","id":27,"geometry":{"type":"Point","coordinates":[110.99903037371972,-7.7904104501913354]},"properties":{"FID":27,"Id":0,"Jenis":"Lainnya","Nama":"Makam Pencil"}},{"type":"Feature","id":28,"geometry":{"type":"Point","coordinates":[110.99948424446937,-7.7903780308520769]},"properties":{"FID":28,"Id":0,"Jenis":"Sekolah","Nama":"SDN 01 Mlokomanis Kulon"}},{"type":"Feature","id":29,"geometry":{"type":"Point","coordinates":[110.99955988959431,-7.7909399660659409]},"properties":{"FID":29,"Id":0,"Jenis":"Masjid","Nama":"Masjid Pencil"}},{"type":"Feature","id":30,"geometry":{"type":"Point","coordinates":[110.99586408491859,-7.7936199647781841]},"properties":{"FID":30,"Id":0,"Jenis":"Lapangan","Nama":"Lapangan Voli Tempuran"}},{"type":"Feature","id":31,"geometry":{"type":"Point","coordinates":[110.99563714954377,-7.7932201262606364]},"properties":{"FID":31,"Id":0,"Jenis":"Masjid","Nama":"Masjid Pendowo Tempuran"}},{"type":"Feature","id":32,"geometry":{"type":"Point","coordinates":[110.99466456936594,-7.7936415776710195]},"properties":{"FID":32,"Id":0,"Jenis":"Masjid","Nama":"Masjid Nurhassanah Tempuran"}},{"type":"Feature","id":33,"geometry":{"type":"Point","coordinates":[110.99183198363023,-7.7982429625567899]},"properties":{"FID":33,"Id":0,"Jenis":"Sekolah","Nama":"TK Al-Hidayah Darussalam"}},{"type":"Feature","id":34,"geometry":{"type":"Point","coordinates":[110.99193572551587,-7.7984435302023547]},"properties":{"FID":34,"Id":0,"Jenis":"Sekolah","Nama":"MI Darussalam Titoti"}},{"type":"Feature","id":35,"geometry":{"type":"Point","coordinates":[110.99470909192522,-7.7997299295842186]},"properties":{"FID":35,"Id":0,"Jenis":"Lapangan","Nama":"Lapangan Voli Pocung"}},{"type":"Feature","id":36,"geometry":{"type":"Point","coordinates":[110.99347110542327,-7.8002624712638209]},"properties":{"FID":36,"Id":0,"Jenis":"Masjid","Nama":"Masjid Al Jami Pocung"}}]}